LEMUR-2-PETERG          
1 42841U 17042S   26068.48235713  .00023240  00000+0  81076-3 0  9993
2 42841  97.3980 253.6596 0003700 341.6938  18.4169 15.29611459473171
STARLINK-35665          
1 66390U 25257L   26068.68109817  .00021862  00000+0  74799-3 0  9994
2 66390  53.1590 216.9444 0001395  66.0867 294.0280 15.30203380 19831
